start=new Date('2023-05-21T00:00:00.000Z').valueOf();
sats=[{"OBJECT_TYPE":"PAYLOAD","PERIAPSIS":"539.133","ARG_OF_PERICENTER":"85.3306","MEAN_MOTION_DOT":"0.00002445","INCLINATION":"53.2177","ECCENTRICITY":"0.00008100","RCS_SIZE":"LARGE","CENTER_NAME":"EARTH","DECAY_DATE":null,"GP_ID":"232209352","MEAN_MOTION":"15.08857046","FILE":"3913175","SITE":"AFETR","OBJECT_NAME":"STARLINK-3504","ELEMENT_SET_NO":"999","TLE_LINE1":"1 51881U 22022AF  23140.70204521  .00002445  00000-0  17159-3 0  9993","MEAN_MOTION_DDOT":"0.0000000000000","BSTAR":"0.00017159000000","CLASSIFICATION_TYPE":"U","MEAN_ELEMENT_THEORY":"SGP4","TLE_LINE2":"2 51881  53.2177 275.9759 0000810  85.3306 274.7779 15.08857046 68717","EPOCH":"2023-05-20T16:50:56.706144","PERIOD":"95.436","OBJECT_ID":"2022-022AF","EPHEMERIS_TYPE":"0","NORAD_CAT_ID":"51881","APOAPSIS":"540.254","COUNTRY_CODE":"US","LAUNCH_DATE":"2022-03-03","TIME_SYSTEM":"UTC","RA_OF_ASC_NODE":"275.9759","SEMIMAJOR_AXIS":"6917.828","REV_AT_EPOCH":"6871","MEAN_ANOMALY":"274.7779","REF_FRAME":"TEME"},{"MEAN_MOTION_DDOT":"0.0000000000000","TLE_LINE1":"1 51882U 22022AG  23140.64780391  .00002027  00000-0  14538-3 0  9995","BSTAR":"0.00014538000000","CLASSIFICATION_TYPE":"U","MEAN_ELEMENT_THEORY":"SGP4","TLE_LINE2":"2 51882  53.2185 276.2337 0001328 113.7331 246.3801 15.08855119 68701","EPOCH":"2023-05-20T15:32:50.257824","PERIOD":"95.437","OBJECT_ID":"2022-022AG","EPHEMERIS_TYPE":"0","COUNTRY_CODE":"US","NORAD_CAT_ID":"51882","APOAPSIS":"540.618","LAUNCH_DATE":"2022-03-03","RA_OF_ASC_NODE":"276.2337","TIME_SYSTEM":"UTC","MEAN_ANOMALY":"246.3801","REV_AT_EPOCH":"6870","SEMIMAJOR_AXIS":"6917.834","REF_FRAME":"TEME","PERIAPSIS":"538.780","OBJECT_TYPE":"PAYLOAD","ARG_OF_PERICENTER":"113.7331","MEAN_MOTION_DOT":"0.00002027","ECCENTRICITY":"0.00013280","INCLINATION":"53.2185","DECAY_DATE":null,"CENTER_NAME":"EARTH","RCS_SIZE":"LARGE","MEAN_MOTION":"15.08855119","GP_ID":"232210099","SITE":"AFETR","FILE":"3913175","OBJECT_NAME":"STARLINK-3570","ELEMENT_SET_NO":"999"},{"OBJECT_TYPE":"PAYLOAD","PERIAPSIS":"538.791","MEAN_MOTION_DOT":"0.00001843","ARG_OF_PERICENTER":"73.7999","MEAN_MOTION":"15.08850584","GP_ID":"232210348","FILE":"3913175","SITE":"AFETR","INCLINATION":"53.2173","ECCENTRICITY":"0.00013330","RCS_SIZE":"LARGE","CENTER_NAME":"EARTH","DECAY_DATE":null,"ELEMENT_SET_NO":"999","OBJECT_NAME":"STARLINK-3576","CLASSIFICATION_TYPE":"U","MEAN_ELEMENT_THEORY":"SGP4","MEAN_MOTION_DDOT":"0.0000000000000","TLE_LINE1":"1 51883U 22022AH  23140.64687514  .00001843  00000-0  13381-3 0  9999","BSTAR":"0.00013381000000","PERIOD":"95.437","OBJECT_ID":"2022-022AH","EPHEMERIS_TYPE":"0","TLE_LINE2":"2 51883  53.2173 276.4118 0001333  73.7999 286.3139 15.08850584 68641","EPOCH":"2023-05-20T15:31:30.012096","NORAD_CAT_ID":"51883","APOAPSIS":"540.635","COUNTRY_CODE":"US","LAUNCH_DATE":"2022-03-03","REV_AT_EPOCH":"6864","SEMIMAJOR_AXIS":"6917.848","MEAN_ANOMALY":"286.3139","REF_FRAME":"TEME","TIME_SYSTEM":"UTC","RA_OF_ASC_NODE":"276.4118"},{"TLE_LINE1":"1 51884U 22022AJ  23140.63949252 -.00001176  00000-0 -55789-4 0  9999","BSTAR":"-0.00005578900000","MEAN_MOTION_DDOT":"0.0000000000000","CLASSIFICATION_TYPE":"U","MEAN_ELEMENT_THEORY":"SGP4","TLE_LINE2":"2 51884  53.2169 276.2651 0001037  58.9360 301.1734 15.08854990 68737","EPOCH":"2023-05-20T15:20:52.153728","PERIOD":"95.437","OBJECT_ID":"2022-022AJ","EPHEMERIS_TYPE":"0","COUNTRY_CODE":"US","NORAD_CAT_ID":"51884","APOAPSIS":"540.417","LAUNCH_DATE":"2022-03-03","RA_OF_ASC_NODE":"276.2651","TIME_SYSTEM":"UTC","MEAN_ANOMALY":"301.1734","REV_AT_EPOCH":"6873","SEMIMAJOR_AXIS":"6917.835","REF_FRAME":"TEME","PERIAPSIS":"538.982","OBJECT_TYPE":"PAYLOAD","ARG_OF_PERICENTER":"58.9360","MEAN_MOTION_DOT":"-0.00001176","INCLINATION":"53.2169","ECCENTRICITY":"0.00010370","DECAY_DATE":null,"CENTER_NAME":"EARTH","RCS_SIZE":"LARGE","MEAN_MOTION":"15.08854990","GP_ID":"232209602","SITE":"AFETR","FILE":"3913175","OBJECT_NAME":"STARLINK-3577","ELEMENT_SET_NO":"999"},{"OBJECT_NAME":"STARLINK-3584","ELEMENT_SET_NO":"999","CENTER_NAME":"EARTH","RCS_SIZE":"LARGE","DECAY_DATE":null,"ECCENTRICITY":"0.00010340","INCLINATION":"53.2175","FILE":"3913175","SITE":"AFETR","MEAN_MOTION":"15.08856798","GP_ID":"232209852","ARG_OF_PERICENTER":"100.6835","MEAN_MOTION_DOT":"0.00003323","OBJECT_TYPE":"PAYLOAD","PERIAPSIS":"538.979","TIME_SYSTEM":"UTC","RA_OF_ASC_NODE":"276.0293","REF_FRAME":"TEME","SEMIMAJOR_AXIS":"6917.829","REV_AT_EPOCH":"6865","MEAN_ANOMALY":"259.4273","LAUNCH_DATE":"2022-03-03","APOAPSIS":"540.409","NORAD_CAT_ID":"51885","COUNTRY_CODE":"US","EPOCH":"2023-05-20T16:35:02.819904","TLE_LINE2":"2 51885  53.2175 276.0293 0001034 100.6835 259.4273 15.08856798 68656","EPHEMERIS_TYPE":"0","OBJECT_ID":"2022-022AK","PERIOD":"95.436","BSTAR":"0.00022669000000","TLE_LINE1":"1 51885U 22022AK  23140.69100486  .00003323  00000-0  22669-3 0  9998","MEAN_MOTION_DDOT":"0.0000000000000","MEAN_ELEMENT_THEORY":"SGP4","CLASSIFICATION_TYPE":"U"},{"OBJECT_TYPE":"PAYLOAD","PERIAPSIS":"539.048","MEAN_MOTION_DOT":"0.00004285","ARG_OF_PERICENTER":"93.0169","GP_ID":"232210599","MEAN_MOTION":"15.08858194","SITE":"AFETR","FILE":"3913175","ECCENTRICITY":"0.00009280","INCLINATION":"53.2159","DECAY_DATE":null,"RCS_SIZE":"LARGE","CENTER_NAME":"EARTH","ELEMENT_SET_NO":"999","OBJECT_NAME":"STARLINK-3565","CLASSIFICATION_TYPE":"U","MEAN_ELEMENT_THEORY":"SGP4","BSTAR":"0.00028703000000","TLE_LINE1":"1 51886U 22022AL  23140.69837015  .00004285  00000-0  28703-3 0  9997","MEAN_MOTION_DDOT":"0.0000000000000","PERIOD":"95.436","OBJECT_ID":"2022-022AL","EPHEMERIS_TYPE":"0","TLE_LINE2":"2 51886  53.2159 275.9915 0000928  93.0169 267.0929 15.08858194 68660","EPOCH":"2023-05-20T16:45:39.180960","COUNTRY_CODE":"US","APOAPSIS":"540.332","NORAD_CAT_ID":"51886","LAUNCH_DATE":"2022-03-03","MEAN_ANOMALY":"267.0929","SEMIMAJOR_AXIS":"6917.825","REV_AT_EPOCH":"6866","REF_FRAME":"TEME","RA_OF_ASC_NODE":"275.9915","TIME_SYSTEM":"UTC"},{"PERIOD":"95.437","OBJECT_ID":"2022-022AM","EPHEMERIS_TYPE":"0","TLE_LINE2":"2 51887  53.2170 276.0477 0000794  94.2931 265.8152 15.08853252 68653","EPOCH":"2023-05-20T16:29:45.348288","CLASSIFICATION_TYPE":"U","MEAN_ELEMENT_THEORY":"SGP4","TLE_LINE1":"1 51887U 22022AM  23140.68733042  .00002456  00000-0  17225-3 0  9997","MEAN_MOTION_DDOT":"0.0000000000000","BSTAR":"0.00017225000000","REV_AT_EPOCH":"6865","SEMIMAJOR_AXIS":"6917.840","MEAN_ANOMALY":"265.8152","REF_FRAME":"TEME","TIME_SYSTEM":"UTC","RA_OF_ASC_NODE":"276.0477","NORAD_CAT_ID":"51887","APOAPSIS":"540.254","COUNTRY_CODE":"US","LAUNCH_DATE":"2022-03-03","MEAN_MOTION_DOT":"0.00002456","ARG_OF_PERICENTER":"94.2931","PERIAPSIS":"539.156","OBJECT_TYPE":"PAYLOAD","ELEMENT_SET_NO":"999","OBJECT_NAME":"STARLINK-3551","GP_ID":"232210848","MEAN_MOTION":"15.08853252","FILE":"3913175","SITE":"AFETR","ECCENTRICITY":"0.00007940","INCLINATION":"53.2170","CENTER_NAME":"EARTH","RCS_SIZE":"LARGE","DECAY_DATE":null},{"TLE_LINE2":"2 51888  53.2170 276.0117 0001054 101.2025 258.9086 15.08857700 68660","EPOCH":"2023-05-20T16:40:20.781408","PERIOD":"95.436","OBJECT_ID":"2022-022AN","EPHEMERIS_TYPE":"0","TLE_LINE1":"1 51888U 22022AN  23140.69468497  .00003878  00000-0  26148-3 0  9991","MEAN_MOTION_DDOT":"0.0000000000000","BSTAR":"0.00026148000000","CLASSIFICATION_TYPE":"U","MEAN_ELEMENT_THEORY":"SGP4","TIME_SYSTEM":"UTC","RA_OF_ASC_NODE":"276.0117","SEMIMAJOR_AXIS":"6917.826","REV_AT_EPOCH":"6866","MEAN_ANOMALY":"258.9086","REF_FRAME":"TEME","APOAPSIS":"540.420","NORAD_CAT_ID":"51888","COUNTRY_CODE":"US","LAUNCH_DATE":"2022-03-03","ARG_OF_PERICENTER":"101.2025","MEAN_MOTION_DOT":"0.00003878","OBJECT_TYPE":"PAYLOAD","PERIAPSIS":"538.962","OBJECT_NAME":"STARLINK-3536","ELEMENT_SET_NO":"999","INCLINATION":"53.2170","ECCENTRICITY":"0.00010540","RCS_SIZE":"LARGE","CENTER_NAME":"EARTH","DECAY_DATE":null,"MEAN_MOTION":"15.08857700","GP_ID":"232209103","FILE":"3913175","SITE":"AFETR"},{"PERIAPSIS":"539.103","OBJECT_TYPE":"PAYLOAD","ARG_OF_PERICENTER":"73.1847","MEAN_MOTION_DOT":"0.00001596","ECCENTRICITY":"0.00008860","INCLINATION":"53.2165","CENTER_NAME":"EARTH","RCS_SIZE":"LARGE","DECAY_DATE":null,"MEAN_MOTION":"15.08849595","GP_ID":"232209353","FILE":"3913175","SITE":"AFETR","OBJECT_NAME":"STARLINK-3547","ELEMENT_SET_NO":"999","TLE_LINE1":"1 51889U 22022AP  23140.67629123  .00001596  00000-0  11828-3 0  9999","MEAN_MOTION_DDOT":"0.0000000000000","BSTAR":"0.00011828000000","CLASSIFICATION_TYPE":"U","MEAN_ELEMENT_THEORY":"SGP4","TLE_LINE2":"2 51889  53.2165 276.0944 0000886  73.1847 286.9242 15.08849595 68651","EPOCH":"2023-05-20T16:13:51.562272","PERIOD":"95.437","OBJECT_ID":"2022-022AP","EPHEMERIS_TYPE":"0","NORAD_CAT_ID":"51889","APOAPSIS":"540.329","COUNTRY_CODE":"US","LAUNCH_DATE":"2022-03-03","TIME_SYSTEM":"UTC","RA_OF_ASC_NODE":"276.0944","SEMIMAJOR_AXIS":"6917.851","REV_AT_EPOCH":"6865","MEAN_ANOMALY":"286.9242","REF_FRAME":"TEME"},{"MEAN_MOTION_DOT":"-0.00000614","ARG_OF_PERICENTER":"77.3219","OBJECT_TYPE":"PAYLOAD","PERIAPSIS":"536.392","ELEMENT_SET_NO":"999","OBJECT_NAME":"STARLINK-3519","FILE":"3913175","SITE":"AFETR","GP_ID":"232210100","MEAN_MOTION":"15.09657741","CENTER_NAME":"EARTH","RCS_SIZE":"LARGE","DECAY_DATE":null,"INCLINATION":"53.2180","ECCENTRICITY":"0.00012370","EPHEMERIS_TYPE":"0","PERIOD":"95.386","OBJECT_ID":"2022-022AQ","EPOCH":"2023-05-20T15:33:05.186016","TLE_LINE2":"2 51890  53.2180 275.8564 0001237  77.3219 282.7912 15.09657741 68654","MEAN_ELEMENT_THEORY":"SGP4","CLASSIFICATION_TYPE":"U","TLE_LINE1":"1 51890U 22022AQ  23140.64797669 -.00000614  00000-0 -19908-4 0  9999","BSTAR":"-0.00001990800000","MEAN_MOTION_DDOT":"0.0000000000000","REF_FRAME":"TEME","SEMIMAJOR_AXIS":"6915.382","REV_AT_EPOCH":"6865","MEAN_ANOMALY":"282.7912","TIME_SYSTEM":"UTC","RA_OF_ASC_NODE":"275.8564","LAUNCH_DATE":"2022-03-03","NORAD_CAT_ID":"51890","APOAPSIS":"538.102","COUNTRY_CODE":"US"}];
